OBJECT_NAME,OBJECT_ID,EPOCH,MEAN_MOTION,ECCENTRICITY,INCLINATION,RA_OF_ASC_NODE,ARG_OF_PERICENTER,MEAN_ANOMALY,EPHEMERIS_TYPE,CLASSIFICATION_TYPE,NORAD_CAT_ID,ELEMENT_SET_NO,REV_AT_EPOCH,BSTAR,MEAN_MOTION_DOT,MEAN_MOTION_DDOT
STARLINK-35245,2025-207H,2026-07-15T17:42:50.959584,15.05661482,.00009227,97.2824,262.8554,132.0487,228.0820,0,U,65599,999,4753,.28022953E-3,.399E-4,0
STARLINK-35229,2025-207J,2026-07-15T22:13:59.208672,15.05658859,.00013857,97.2841,262.9023,115.9369,244.2002,0,U,65600,999,4755,.1965326E-3,.2781E-4,0
STARLINK-35234,2025-207K,2026-07-15T04:29:19.277952,15.05663376,.00013175,97.2850,262.2263,153.7131,206.4163,0,U,65601,999,4744,.22076488E-3,.3131E-4,0
STARLINK-35255,2025-207L,2026-07-15T18:26:42.571392,15.05659002,.00018163,97.2838,262.8157,125.4713,234.6684,0,U,65602,999,4753,.1560715E-3,.2197E-4,0
STARLINK-35250,2025-207M,2026-07-15T18:02:47.462208,15.05657701,.00008377,97.2821,262.8365,118.3557,241.7755,0,U,65603,999,4753,.27218014E-3,.3874E-4,0
STARLINK-35251,2025-207N,2026-07-15T18:34:40.777248,15.05658836,.00022006,97.2841,262.8076,159.2632,200.8686,0,U,65604,999,4753,.14859096E-3,.2089E-4,0
STARLINK-35171,2025-207P,2026-07-15T18:14:44.824128,15.05659791,.00008707,97.2833,262.8259,100.5655,259.5670,0,U,65605,999,4737,.11279675E-3,.1572E-4,0
STARLINK-35195,2025-207Q,2026-07-15T17:38:51.883872,15.05662643,.00003759,97.2829,262.8590,119.2543,240.8722,0,U,65606,999,4753,.35654947E-3,.5093E-4,0
STARLINK-35156,2025-207R,2026-07-15T17:46:50.379168,15.05654007,.00010559,97.2823,262.8505,93.4405,266.6943,0,U,65607,999,4753,.18312873E-3,.2587E-4,0
STARLINK-35185,2025-207S,2026-07-15T23:09:49.196736,15.05658298,.00012772,97.2837,263.0076,133.3389,226.7946,0,U,65608,999,4756,.14576021E-3,.2048E-4,0
STARLINK-35053,2025-207T,2026-07-15T17:58:48.074592,15.05659583,.0001468,97.2817,262.8396,130.6572,229.4783,0,U,65609,999,4737,.1777756E-3,.251E-4,0
STARLINK-35178,2025-207U,2026-07-15T18:38:40.011936,15.05667596,.00014558,97.2849,262.8043,95.9746,264.1647,0,U,65610,999,4753,.10911183E-3,.1519E-4,0
STARLINK-35186,2025-207V,2026-07-15T17:34:51.535488,15.05662991,.00010082,97.2830,262.7080,166.4967,193.6288,0,U,65611,999,4752,.33193985E-3,.4738E-4,0
STARLINK-35154,2025-207W,2026-07-15T17:50:49.238880,15.05662612,.00006932,97.2827,262.8480,151.6823,208.4442,0,U,65612,999,4737,.27025596E-3,.3846E-4,0
STARLINK-35162,2025-207X,2026-07-15T18:10:47.879040,15.05617234,.00005848,97.2828,262.8304,134.6307,225.4969,0,U,65613,999,4753,-.45393767E-3,-.6594E-4,0
STARLINK-35206,2025-207Y,2026-07-15T18:46:38.539200,15.05661304,.00010615,97.2845,262.7949,103.1112,257.0234,0,U,65614,999,4742,.32791373E-3,.4679E-4,0
STARLINK-35174,2025-207Z,2026-07-15T14:11:29.571072,15.05662275,.00009581,97.2843,262.5928,116.4218,243.7108,0,U,65615,999,4750,.4619729E-4,.611E-5,0
STARLINK-35247,2025-210A,2026-07-15T22:20:08.927232,15.30199948,.00015826,53.1588,71.5366,125.0369,235.0781,0,U,65622,999,4736,.25741246E-3,.7272E-4,0
STARLINK-35239,2025-210B,2026-07-15T22:21:36.542880,15.34403275,.00013373,53.1586,68.7113,107.8271,252.2878,0,U,65623,999,4740,.27001909E-3,.8758E-4,0
STARLINK-35151,2025-210C,2026-07-15T22:17:55.050432,15.34414929,.00012281,53.1578,67.2640,112.7652,247.3480,0,U,65624,999,4734,.55978321E-3,.18593E-3,0
STARLINK-35153,2025-210D,2026-07-15T22:12:30.964896,15.34416243,.00014752,53.1581,68.6674,72.8966,287.2199,0,U,65625,999,4732,.53199852E-3,.1765E-3,0
STARLINK-35225,2025-210E,2026-07-15T21:12:03.292416,15.34403282,.00014194,53.1587,69.1131,96.3488,263.7676,0,U,65626,999,4739,.27063123E-3,.8779E-4,0
STARLINK-35217,2025-210F,2026-07-15T22:39:54.047520,15.30188807,.00012433,53.1591,71.6189,78.3886,281.7255,0,U,65627,999,4736,.50265577E-3,.14552E-3,0
STARLINK-35128,2025-210G,2026-07-15T21:24:10.692288,15.34400365,.00014979,53.1592,69.1685,97.7422,262.3751,0,U,65628,999,4739,.26845534E-3,.8705E-4,0
STARLINK-35135,2025-210H,2026-07-15T21:57:29.704032,15.34405886,.00018111,53.1588,69.3046,147.9824,212.1289,0,U,65629,999,4739,.35114328E-3,.11508E-3,0
STARLINK-34877,2025-210J,2026-07-15T21:36:19.447776,15.34387665,.00010787,53.1589,69.2216,81.3616,278.7509,0,U,65630,999,4739,.5713245E-3,.18968E-3,0
STARLINK-35104,2025-210K,2026-07-15T22:30:42.266016,15.34394399,.00009093,53.1583,68.7467,80.6575,279.4530,0,U,65631,999,4739,.43152168E-3,.14229E-3,0
STARLINK-35117,2025-210L,2026-07-15T22:44:27.468096,15.30203200,.00013738,53.1577,71.6382,119.8907,240.2230,0,U,65632,999,4736,.27628656E-3,.7833E-4,0
STARLINK-35103,2025-210M,2026-07-15T21:05:59.608032,15.34401045,.00012628,53.1588,69.0901,96.4041,263.7105,0,U,65633,999,4739,.20682387E-3,.6618E-4,0
STARLINK-35123,2025-210N,2026-07-15T21:25:56.617824,15.31708094,.00016816,53.1590,71.2990,131.9030,228.2115,0,U,65634,999,4736,.15350513E-3,.4402E-4,0
STARLINK-35150,2025-210P,2026-07-15T22:38:23.845920,15.30225702,.0001297,53.1591,71.6090,95.1837,264.9312,0,U,65635,999,4736,.65031173E-3,.18966E-3,0
STARLINK-35209,2025-210Q,2026-07-15T22:00:31.563072,15.34397256,.00020186,53.1586,69.3191,150.5730,209.5387,0,U,65636,999,4739,.35058814E-3,.11486E-3,0
STARLINK-35147,2025-210R,2026-07-15T21:21:08.950752,15.34402623,.00014078,53.1598,69.1524,96.2249,263.8914,0,U,65637,999,4739,.32843192E-3,.10737E-3,0
STARLINK-35213,2025-210S,2026-07-15T21:15:05.355360,15.34396318,.00014267,53.1584,69.1283,93.3630,266.7536,0,U,65638,999,4739,.1898351E-3,.6042E-4,0
STARLINK-35127,2025-210T,2026-07-15T21:02:57.742944,15.34401648,.00012703,53.1586,69.0730,102.0674,258.0471,0,U,65639,999,4739,.2446295E-3,.7898E-4,0
STARLINK-35091,2025-210U,2026-07-15T23:19:10.857216,15.34401393,.0001199,53.1598,68.9542,69.4640,290.6491,0,U,65640,999,4740,.33115031E-3,.10829E-3,0
STARLINK-35134,2025-210V,2026-07-15T20:53:52.329984,15.34401142,.00017892,53.1588,69.0366,129.5880,230.5281,0,U,65641,999,4739,.23608595E-3,.7609E-4,0
STARLINK-35109,2025-210W,2026-07-15T22:18:34.879104,15.34396872,.0001219,53.1585,68.6898,96.9747,263.1394,0,U,65642,999,4740,.19366432E-3,.6172E-4,0
STARLINK-35062,2025-210X,2026-07-15T22:15:33.294816,15.34401039,.00011596,53.1581,68.6749,76.3450,283.7682,0,U,65643,999,4740,.35977882E-3,.11799E-3,0
STARLINK-35141,2025-210Y,2026-07-15T21:52:49.163232,15.31734539,.00014109,53.1601,71.4138,100.4120,259.7041,0,U,65644,999,4736,.53072559E-3,.16157E-3,0
STARLINK-35237,2025-210Z,2026-07-15T22:47:30.071904,15.30193155,.00015527,53.1576,71.6501,90.4430,269.6748,0,U,65645,999,4736,.39953582E-3,.1149E-3,0
STARLINK-35183,2025-210AA,2026-07-15T20:59:46.111200,15.30189648,.00011742,53.1577,71.8884,84.0978,276.0156,0,U,65646,999,4735,.18669965E-3,.5173E-4,0
STARLINK-35202,2025-210AB,2026-07-15T22:14:52.421568,15.34385004,.00011326,53.1584,67.2474,78.5779,281.5351,0,U,65647,999,4742,.28623883E-3,.9302E-4,0
STARLINK-34868,2025-210AC,2026-07-15T21:33:17.237088,15.34377618,.00011284,53.1590,69.2021,51.8490,308.2614,0,U,65648,999,4739,.34161959E-3,.11175E-3,0
STARLINK-35079,2025-210AD,2026-07-15T22:23:13.296192,15.30201258,.00013606,53.1590,71.5395,66.6305,293.4838,0,U,65649,999,4736,.91697285E-3,.26898E-3,0
STARLINK-35328,2025-211A,2026-07-15T03:00:58.942080,15.05658153,.00018251,97.2843,237.5523,92.6453,267.4984,0,U,65652,999,4621,.91124184E-4,.1259E-4,0
STARLINK-34210,2025-211B,2026-07-15T02:53:00.742272,15.05658743,.00014673,97.2841,237.5598,114.6938,245.4443,0,U,65653,999,4621,.14896576E-3,.2094E-4,0
STARLINK-35227,2025-211C,2026-07-15T02:45:02.554560,15.05654339,.00017459,97.2837,237.5680,101.4667,258.6757,0,U,65654,999,4621,.46827784E-4,.62E-5,0
STARLINK-35240,2025-211D,2026-07-15T02:56:59.872416,15.05660514,.00019082,97.2834,237.5551,109.1733,250.9701,0,U,65655,999,4621,.15622161E-3,.2199E-4,0
STARLINK-35344,2025-211E,2026-07-15T22:00:01.999584,15.10525655,.00021302,97.2842,238.3379,84.8928,328.0139,0,U,65656,999,564,.13801871E-2,.22745E-3,0
STARLINK-34540,2025-211F,2026-07-15T02:41:03.568704,15.05657307,.00026821,97.2840,237.5726,107.0612,253.0909,0,U,65657,999,4621,.14616522E-3,.2054E-4,0
STARLINK-35282,2025-211G,2026-07-15T02:33:06.381504,15.05661439,.00022169,97.2834,237.5799,113.8108,246.3352,0,U,65658,999,4621,.23579894E-3,.3349E-4,0
STARLINK-35120,2025-211H,2026-07-15T02:37:04.065312,15.05659843,.00017353,97.2839,237.5772,109.0075,251.1341,0,U,65659,999,4621,.16981854E-3,.2395E-4,0
STARLINK-35246,2025-211J,2026-07-15T02:29:05.510400,15.05658385,.00016033,97.2840,237.5846,123.0076,237.1306,0,U,65660,999,4621,.12390288E-3,.1732E-4,0
STARLINK-35220,2025-211K,2026-07-15T22:00:01.999584,15.10502665,.00020768,97.2832,238.3702,108.1320,19.5527,0,U,65661,999,574,.18864191E-2,.31126E-3,0
STARLINK-35176,2025-211L,2026-07-15T02:21:07.810848,15.05648490,.0002127,97.2817,237.5906,93.3794,266.7677,0,U,65662,999,4621,-.20850051E-4,-.357E-5,0
STARLINK-35190,2025-211M,2026-07-15T22:00:01.999584,15.10512789,.00017509,97.2834,238.3816,93.5110,62.1969,0,U,65663,999,564,.17214882E-2,.28396E-3,0
STARLINK-35201,2025-211N,2026-07-15T02:13:08.855904,15.05658531,.00020903,97.2820,237.5984,116.5074,243.6368,0,U,65664,999,4621,.16026385E-3,.2257E-4,0
STARLINK-35115,2025-211P,2026-07-15T02:09:11.499552,15.05652562,.00018521,97.2827,237.6036,134.2107,225.9273,0,U,65665,999,4621,.35269178E-3,.5036E-4,0
STARLINK-35181,2025-211Q,2026-07-15T02:05:09.882816,15.05652748,.00017139,97.2822,237.6068,127.6159,232.5224,0,U,65666,999,4621,-.54547962E-4,-.843E-5,0
STARLINK-35361,2025-211R,2026-07-15T13:11:05.257824,15.05657976,.0001665,97.2818,238.0498,109.3334,250.8074,0,U,65667,999,4628,.18829E-3,.2662E-4,0
STARLINK-35351,2025-211S,2026-07-15T13:07:05.853792,15.05659526,.00010392,97.2821,238.0535,112.8751,247.2586,0,U,65668,999,4628,.21630131E-3,.3067E-4,0
STARLINK-35353,2025-211T,2026-07-15T13:03:06.679584,15.05661212,.0001348,97.2819,238.0573,109.3851,250.7522,0,U,65669,999,4628,.26896E-3,.3828E-4,0
STARLINK-35359,2025-211U,2026-07-15T01:49:13.361376,15.05662161,.0001213,97.2825,237.6221,109.1778,250.9581,0,U,65670,999,4621,.77724768E-4,.1066E-4,0
